BLUEBON                 
1 62688U 25009CH  26068.70316231  .00010452  00000+0  37313-3 0  9992
2 62688  97.4017 152.2033 0001193  43.3900 316.7434 15.29047253 63767
STARLINK-36104          
1 66964U 25288F   26068.29645574  .00035609  00000+0  12970-2 0  9993
2 66964  43.0015  25.9869 0001499 276.8839  83.1842 15.27586411 15227
